NORAD_CAT_ID,OBJECT_NAME,OBJECT_TYPE,EPOCH,MEAN_MOTION,ECCENTRICITY,INCLINATION,RA_OF_ASC_NODE,ARG_OF_PERICENTER,MEAN_ANOMALY,BSTAR,MEAN_MOTION_DOT,MEAN_MOTION_DDOT,TLE_LINE0,TLE_LINE1,TLE_LINE2,SEMIMAJOR_AXIS,PERIOD,APOGEE,PERIGEE,DECAYED
51770.0,STARLINK-3612,PAYLOAD,2023-05-26 12:10:27,15.08843626,0.0001152,53.216,229.918,101.3252,258.787,1.2941e-05,-8.2e-07,0.0,0 STARLINK-3612,1 51770U 22017C   23146.50726500 -.00000082  00000-0  12941-4 0  9995,2 51770  53.2160 229.9180 0001152 101.3252 258.7870 15.08843626 70347,6917.869,95.437,540.531,538.937,0.0
51770.0,STARLINK-3612,PAYLOAD,2023-05-27 10:25:51,15.08838111,0.0001145,53.216,225.755,101.227,258.8851,2.5283e-05,1.15e-06,0.0,0 STARLINK-3612,1 51770U 22017C   23147.43462768  .00000115  00000-0  25283-4 0  9990,2 51770  53.2160 225.7550 0001145 101.2270 258.8851 15.08838111 70481,6917.886,95.438,540.543,538.959,0.0
51770.0,STARLINK-3612,PAYLOAD,2023-05-27 15:12:01,15.0884028,0.0001083,53.2161,224.8634,90.5279,269.5837,1.7577e-05,-8e-08,0.0,0 STARLINK-3612,1 51770U 22017C   23147.63334667 -.00000008  00000-0  17577-4 0  9997,2 51770  53.2161 224.8634 0001083  90.5279 269.5837 15.08840280 69071,6917.88,95.438,540.494,538.995,0.0
51770.0,STARLINK-3612,PAYLOAD,2023-05-28 05:30:29,15.08837381,0.0001063,53.2159,222.1876,90.3811,269.7303,4.4182e-05,4.15e-06,0.0,0 STARLINK-3612,1 51770U 22017C   23148.22950884  .00000415  00000-0  44182-4 0  9991,2 51770  53.2159 222.1876 0001063  90.3811 269.7303 15.08837381 69163,6917.888,95.438,540.489,539.018,0.0
51770.0,STARLINK-3612,PAYLOAD,2023-05-28 11:52:01,15.08842554,0.0001081,53.2159,220.998,89.6567,270.4549,8.4094e-05,1.051e-05,0.0,0 STARLINK-3612,1 51770U 22017C   23148.49446467  .00001051  00000-0  84094-4 0  9990,2 51770  53.2159 220.9980 0001081  89.6567 270.4549 15.08842554 70648,6917.873,95.437,540.485,538.99,0.0
51770.0,STARLINK-3612,PAYLOAD,2023-05-28 21:24:20,15.08843304,0.0001079,53.2157,219.2141,89.479,270.6326,0.00010134,1.326e-05,0.0,0 STARLINK-3612,1 51770U 22017C   23148.89190331  .00001326  00000-0  10134-3 0  9998,2 51770  53.2157 219.2141 0001079  89.4790 270.6326 15.08843304 69264,6917.87,95.437,540.482,538.989,0.0
51770.0,STARLINK-3612,PAYLOAD,2023-05-29 10:07:26,15.08837629,0.0001097,53.2153,216.8363,91.6441,268.4676,3.0363e-05,1.95e-06,0.0,0 STARLINK-3612,1 51770U 22017C   23149.42182927  .00000195  00000-0  30363-4 0  9990,2 51770  53.2153 216.8363 0001097  91.6441 268.4676 15.08837629 70782,6917.888,95.438,540.512,538.994,0.0
51770.0,STARLINK-3612,PAYLOAD,2023-05-29 11:42:49,15.08838921,0.0001105,53.2153,216.5389,91.417,268.6949,3.9583e-05,3.42e-06,0.0,0 STARLINK-3612,1 51770U 22017C   23149.48806807  .00000342  00000-0  39583-4 0  9993,2 51770  53.2153 216.5389 0001105  91.4170 268.6949 15.08838921 69356,6917.884,95.438,540.513,538.984,0.0
51770.0,STARLINK-3612,PAYLOAD,2023-05-29 21:15:08,15.08836108,0.0001141,53.2155,214.7547,90.85,269.2623,2.1458e-05,5.4e-07,0.0,0 STARLINK-3612,1 51770U 22017C   23149.88551089  .00000054  00000-0  21458-4 0  9998,2 51770  53.2155 214.7547 0001141  90.8500 269.2623 15.08836108 69412,6917.892,95.438,540.547,538.968,0.0
51770.0,STARLINK-3612,PAYLOAD,2023-05-30 11:33:36,15.08836091,0.000116,53.2155,212.0783,92.5104,267.6021,-1.3245e-05,-4.99e-06,0.0,0 STARLINK-3612,1 51770U 22017C   23150.48167343 -.00000499  00000-0 -13245-4 0  9992,2 51770  53.2155 212.0783 0001160  92.5104 267.6021 15.08836091 69500,6917.892,95.438,540.56,538.955,0.0
51770.0,STARLINK-3612,PAYLOAD,2023-05-30 21:05:55,15.08839437,0.0001199,53.216,210.2944,87.3955,272.7175,5.069e-07,-2.8e-06,0.0,0 STARLINK-3612,1 51770U 22017C   23150.87911158 -.00000280  00000-0  50690-6 0  9990,2 51770  53.2160 210.2944 0001199  87.3955 272.7175 15.08839437 69563,6917.882,95.438,540.577,538.918,0.0
51770.0,STARLINK-3612,PAYLOAD,2023-05-31 11:24:23,15.0884029,0.0001147,53.2156,207.6177,86.9218,273.1905,6.0042e-05,6.68e-06,0.0,0 STARLINK-3612,1 51770U 22017C   23151.47526964  .00000668  00000-0  60042-4 0  9993,2 51770  53.2156 207.6177 0001147  86.9218 273.1905 15.08840290 69651,6917.88,95.438,540.538,538.951,0.0
51770.0,STARLINK-3612,PAYLOAD,2023-05-31 20:56:42,15.08839818,0.0001142,53.2155,205.8333,85.1591,274.9531,6.6742e-05,7.75e-06,0.0,0 STARLINK-3612,1 51770U 22017C   23151.87270979  .00000775  00000-0  66742-4 0  9991,2 51770  53.2155 205.8333 0001142  85.1591 274.9531 15.08839818 69719,6917.881,95.438,540.536,538.956,0.0
51770.0,STARLINK-3612,PAYLOAD,2023-06-01 09:39:47,15.08840117,0.0001132,53.2153,203.4538,85.9552,274.1569,9.8996e-05,1.288e-05,0.0,0 STARLINK-3612,1 51770U 22017C   23152.40262917  .00001288  00000-0  98996-4 0  9990,2 51770  53.2153 203.4538 0001132  85.9552 274.1569 15.08840117 69797,6917.88,95.438,540.528,538.962,0.0
51770.0,STARLINK-3612,PAYLOAD,2023-06-01 20:47:29,15.08840686,0.0001154,53.2151,201.3718,86.1883,273.9241,5.5785e-05,6e-06,0.0,0 STARLINK-3612,1 51770U 22017C   23152.86630969  .00000600  00000-0  55785-4 0  9992,2 51770  53.2151 201.3718 0001154  86.1883 273.9241 15.08840686 71301,6917.878,95.438,540.542,538.945,0.0
51770.0,STARLINK-3612,PAYLOAD,2023-06-02 09:30:34,15.08838579,0.0001175,53.2151,198.9935,80.0833,280.0292,1.9098e-05,1.6e-07,0.0,0 STARLINK-3612,1 51770U 22017C   23153.39623241  .00000016  00000-0  19098-4 0  9994,2 51770  53.2151 198.9935 0001175  80.0833 280.0292 15.08838579 69944,6917.885,95.438,540.563,538.937,0.0
51770.0,STARLINK-3612,PAYLOAD,2023-06-03 02:59:48,15.0883619,0.000119,53.2147,195.7213,92.1311,267.9818,5.9398e-05,6.58e-06,0.0,0 STARLINK-3612,1 51770U 22017C   23154.12487233  .00000658  00000-0  59398-4 0  9994,2 51770  53.2147 195.7213 0001190  92.1311 267.9818 15.08836190 71493,6917.892,95.438,540.58,538.934,0.0
51770.0,STARLINK-3612,PAYLOAD,2023-06-03 12:32:07,15.08839615,0.000119,53.215,193.9372,93.5473,266.5656,-4.9615e-06,-3.67e-06,0.0,0 STARLINK-3612,1 51770U 22017C   23154.52231209 -.00000367  00000-0 -49615-5 0  9999,2 51770  53.2150 193.9372 0001190  93.5473 266.5656 15.08839615 70115,6917.882,95.438,540.57,538.923,0.0
51770.0,STARLINK-3612,PAYLOAD,2023-06-04 09:12:08,15.08835526,0.0001113,53.2151,190.0715,101.0966,259.0151,3.3794e-05,2.5e-06,0.0,0 STARLINK-3612,1 51770U 22017C   23155.38343448  .00000250  00000-0  33794-4 0  9992,2 51770  53.2151 190.0715 0001113 101.0966 259.0151 15.08835526 71689,6917.894,95.438,540.529,538.989,0.0
51770.0,STARLINK-3612,PAYLOAD,2023-06-04 18:44:27,15.08837163,0.0001095,53.2151,188.287,99.8404,260.2712,3.6545e-05,2.94e-06,0.0,0 STARLINK-3612,1 51770U 22017C   23155.78087388  .00000294  00000-0  36545-4 0  9999,2 51770  53.2151 188.2870 0001095  99.8404 260.2712 15.08837163 70304,6917.889,95.438,540.512,538.997,0.0
51770.0,STARLINK-3612,PAYLOAD,2023-06-05 12:13:41,15.08839801,0.0001076,53.2152,185.0161,98.4112,261.7003,5.1534e-05,5.32e-06,0.0,0 STARLINK-3612,1 51770U 22017C   23156.50951255  .00000532  00000-0  51534-4 0  9993,2 51770  53.2152 185.0161 0001076  98.4112 261.7003 15.08839801 70415,6917.881,95.438,540.49,539.002,0.0
51770.0,STARLINK-3612,PAYLOAD,2023-06-05 18:35:14,15.08836214,0.0001064,53.2152,183.8264,96.2431,263.8682,3.3161e-05,2.4e-06,0.0,0 STARLINK-3612,1 51770U 22017C   23156.77447571  .00000240  00000-0  33161-4 0  9995,2 51770  53.2152 183.8264 0001064  96.2431 263.8682 15.08836214 70457,6917.892,95.438,540.493,539.021,0.0
51770.0,STARLINK-3612,PAYLOAD,2023-06-06 04:07:33,15.08831892,0.0001064,53.2152,182.0426,99.4175,260.6937,1.6878e-05,-1.9e-07,0.0,0 STARLINK-3612,1 51770U 22017C   23157.17192029 -.00000019  00000-0  16878-4 0  9996,2 51770  53.2152 182.0426 0001064  99.4175 260.6937 15.08831892 71959,6917.905,95.438,540.506,539.034,0.0
51770.0,STARLINK-3612,PAYLOAD,2023-06-06 07:18:20,15.08833131,0.0001052,53.2152,181.448,99.1752,260.9359,2.5208e-05,1.13e-06,0.0,0 STARLINK-3612,1 51770U 22017C   23157.30439973  .00000113  00000-0  25208-4 0  9994,2 51770  53.2152 181.4480 0001052  99.1752 260.9359 15.08833131 70539,6917.901,95.438,540.494,539.039,0.0
51770.0,STARLINK-3612,PAYLOAD,2023-06-07 10:19:53,15.08841331,0.0001032,53.2154,176.3927,92.2278,267.8832,3.4006e-05,2.53e-06,0.0,0 STARLINK-3612,1 51770U 22017C   23158.43047604  .00000253  00000-0  34006-4 0  9996,2 51770  53.2154 176.3927 0001032  92.2278 267.8832 15.08841331 72147,6917.876,95.437,540.455,539.027,0.0
51770.0,STARLINK-3612,PAYLOAD,2023-06-07 18:16:48,15.08839078,0.0001033,53.2155,174.9061,88.6986,271.4125,3.102e-05,2.06e-06,0.0,0 STARLINK-3612,1 51770U 22017C   23158.76167766  .00000206  00000-0  31020-4 0  9995,2 51770  53.2155 174.9061 0001033  88.6986 271.4125 15.08839078 70753,6917.883,95.438,540.463,539.034,0.0
51770.0,STARLINK-3612,PAYLOAD,2023-06-08 00:38:21,15.0883511,9.92e-05,53.2153,173.717,89.1819,270.9286,3.654e-05,2.94e-06,0.0,0 STARLINK-3612,1 51770U 22017C   23159.02664044  .00000294  00000-0  36540-4 0  9995,2 51770  53.2153 173.7170 0000992  89.1819 270.9286 15.08835110 72233,6917.895,95.438,540.447,539.074,0.0
51770.0,STARLINK-3612,PAYLOAD,2023-06-08 08:35:17,15.08837819,9.56e-05,53.215,172.2292,100.1395,259.9705,6.2189e-05,7.02e-06,0.0,0 STARLINK-3612,1 51770U 22017C   23159.35783861  .00000702  00000-0  62189-4 0  9992,2 51770  53.2150 172.2292 0000956 100.1395 259.9705 15.08837819 70848,6917.887,95.438,540.413,539.091,0.0
51770.0,STARLINK-3612,PAYLOAD,2023-06-09 06:50:40,15.08843532,9.86e-05,53.2147,168.0664,89.4408,270.6697,5.6793e-05,6.16e-06,0.0,0 STARLINK-3612,1 51770U 22017C   23160.28519524  .00000616  00000-0  56793-4 0  9997,2 51770  53.2147 168.0664 0000986  89.4408 270.6697 15.08843532 72422,6917.87,95.437,540.417,539.052,0.0
51770.0,STARLINK-3612,PAYLOAD,2023-06-09 17:58:22,15.08841663,9.77e-05,53.2149,165.985,87.8386,272.2717,3.439e-05,2.6e-06,0.0,0 STARLINK-3612,1 51770U 22017C   23160.74887628  .00000260  00000-0  34390-4 0  9995,2 51770  53.2149 165.9850 0000977  87.8386 272.2717 15.08841663 71056,6917.875,95.437,540.416,539.064,0.0
